STARLINK-37215          
1 68392U 26063N   26095.16668981 -.02170551  12516-2 -72309-2 0  9995
2 68392  97.2815 236.1621 0001488  59.6861 298.2251 15.90395782  2717
STARLINK-37184          
1 68393U 26063P   26095.16668981 -.02186477  12704-2 -72470-2 0  9998
2 68393  97.2816 236.1638 0001454  63.5134 298.0516 15.90498370  2716
STARLINK-37157          
1 68394U 26063Q   26095.16668981 -.02173949  12583-2 -71595-2 0  9991
2 68394  97.2811 236.1644 0001536  56.8115 307.9414 15.90623684  2719
STARLINK-37172          
1 68395U 26063R   26095.16668981 -.02192470  12818-2 -71361-2 0  9994
2 68395  97.2806 236.1672 0001509  64.3668 307.2525 15.90857698  2712
STARLINK-37190          
1 68396U 26063S   26095.16668981 -.02184771  12719-2 -71475-2 0  9996
2 68396  97.2805 236.1658 0001567  58.5787 309.4223 15.90755831  2712
STARLINK-37194          
1 68397U 26063T   26095.16668981 -.02195589  12868-2 -71062-2 0  9993
2 68397  97.2806 236.1689 0001595  56.0688 318.9899 15.90968818  2717
STARLINK-37220          
1 68398U 26063U   26095.16668981 -.02194422  12885-2 -70226-2 0  9999
2 68398  97.2806 236.1719 0001637  52.5774 329.2924 15.91191075  2714
STARLINK-37187          
1 68399U 26063V   26095.16668981 -.01971836  10497-2 -63945-2 0  9998
2 68399  97.2803 236.1708 0002424  49.2682 329.2760 15.90902876  2712
STARLINK-36235          
1 68400U 26063W   26095.16668981 -.02204982  13016-2 -70220-2 0  9997
2 68400  97.2799 236.1734 0001519  61.6962 323.8525 15.91288230  2712
STARLINK-37175          
1 68401U 26063X   26095.16668981 -.02222110  13224-2 -70387-2 0  9996
2 68401  97.2801 236.1752 0001653  57.2555 331.9122 15.91394658  2710
STARLINK-36360          
1 68402U 26063Y   26095.16668981 -.02217620  13187-2 -69885-2 0  9996
2 68402  97.2798 236.1766 0001663  60.2510 332.4637 15.91495001  2718
STARLINK-37218          
1 68403U 26063Z   26095.16668981 -.02237302  13447-2 -69635-2 0  9998
2 68403  97.2802 236.1805 0001693  53.8977 345.4311 15.91739705  2712
