CCSDS_OMM_VERS = 2.0
CREATION_DATE  = 
ORIGINATOR     = 

OBJECT_NAME    = STARLINK-37215
OBJECT_ID      = 2026-063N
CENTER_NAME    = EARTH
REF_FRAME      = TEME
TIME_SYSTEM    = UTC
MEAN_ELEMENT_THEORY = SGP/SGP4

EPOCH          = 2026-04-05T04:00:01.999584
MEAN_MOTION    = 15.90395782
ECCENTRICITY   = .00014885
INCLINATION    = 97.2815
RA_OF_ASC_NODE = 236.1621
ARG_OF_PERICENTER = 59.6861
MEAN_ANOMALY   = 298.2251

EPHEMERIS_TYPE = 0
CLASSIFICATION_TYPE = U
NORAD_CAT_ID   = 68392
ELEMENT_SET_NO = 999
REV_AT_EPOCH   = 271
BSTAR          = -.72308939E-2
MEAN_MOTION_DOT = -.2170551E-1
MEAN_MOTION_DDOT = .12515975E-2

CCSDS_OMM_VERS = 2.0
CREATION_DATE  = 
ORIGINATOR     = 

OBJECT_NAME    = STARLINK-37184
OBJECT_ID      = 2026-063P
CENTER_NAME    = EARTH
REF_FRAME      = TEME
TIME_SYSTEM    = UTC
MEAN_ELEMENT_THEORY = SGP/SGP4

EPOCH          = 2026-04-05T04:00:01.999584
MEAN_MOTION    = 15.90498370
ECCENTRICITY   = .00014547
INCLINATION    = 97.2816
RA_OF_ASC_NODE = 236.1638
ARG_OF_PERICENTER = 63.5134
MEAN_ANOMALY   = 298.0516

EPHEMERIS_TYPE = 0
CLASSIFICATION_TYPE = U
NORAD_CAT_ID   = 68393
ELEMENT_SET_NO = 999
REV_AT_EPOCH   = 271
BSTAR          = -.72469698E-2
MEAN_MOTION_DOT = -.2186477E-1
MEAN_MOTION_DDOT = .12704291E-2

CCSDS_OMM_VERS = 2.0
CREATION_DATE  = 
ORIGINATOR     = 

OBJECT_NAME    = STARLINK-37157
OBJECT_ID      = 2026-063Q
CENTER_NAME    = EARTH
REF_FRAME      = TEME
TIME_SYSTEM    = UTC
MEAN_ELEMENT_THEORY = SGP/SGP4

EPOCH          = 2026-04-05T04:00:01.999584
MEAN_MOTION    = 15.90623684
ECCENTRICITY   = .00015364
INCLINATION    = 97.2811
RA_OF_ASC_NODE = 236.1644
ARG_OF_PERICENTER = 56.8115
MEAN_ANOMALY   = 307.9414

EPHEMERIS_TYPE = 0
CLASSIFICATION_TYPE = U
NORAD_CAT_ID   = 68394
ELEMENT_SET_NO = 999
REV_AT_EPOCH   = 271
BSTAR          = -.71594564E-2
MEAN_MOTION_DOT = -.2173949E-1
MEAN_MOTION_DDOT = .12582748E-2

CCSDS_OMM_VERS = 2.0
CREATION_DATE  = 
ORIGINATOR     = 

OBJECT_NAME    = STARLINK-37172
OBJECT_ID      = 2026-063R
CENTER_NAME    = EARTH
REF_FRAME      = TEME
TIME_SYSTEM    = UTC
MEAN_ELEMENT_THEORY = SGP/SGP4

EPOCH          = 2026-04-05T04:00:01.999584
MEAN_MOTION    = 15.90857698
ECCENTRICITY   = .00015099
INCLINATION    = 97.2806
RA_OF_ASC_NODE = 236.1672
ARG_OF_PERICENTER = 64.3668
MEAN_ANOMALY   = 307.2525

EPHEMERIS_TYPE = 0
CLASSIFICATION_TYPE = U
NORAD_CAT_ID   = 68395
ELEMENT_SET_NO = 999
REV_AT_EPOCH   = 271
BSTAR          = -.71361373E-2
MEAN_MOTION_DOT = -.219247E-1
MEAN_MOTION_DDOT = .12818238E-2

CCSDS_OMM_VERS = 2.0
CREATION_DATE  = 
ORIGINATOR     = 

OBJECT_NAME    = STARLINK-37190
OBJECT_ID      = 2026-063S
CENTER_NAME    = EARTH
REF_FRAME      = TEME
TIME_SYSTEM    = UTC
MEAN_ELEMENT_THEORY = SGP/SGP4

EPOCH          = 2026-04-05T04:00:01.999584
MEAN_MOTION    = 15.90755831
ECCENTRICITY   = .00015675
INCLINATION    = 97.2805
RA_OF_ASC_NODE = 236.1658
ARG_OF_PERICENTER = 58.5787
MEAN_ANOMALY   = 309.4223

EPHEMERIS_TYPE = 0
CLASSIFICATION_TYPE = U
NORAD_CAT_ID   = 68396
ELEMENT_SET_NO = 999
REV_AT_EPOCH   = 271
BSTAR          = -.71475272E-2
MEAN_MOTION_DOT = -.2184771E-1
MEAN_MOTION_DDOT = .12719365E-2

CCSDS_OMM_VERS = 2.0
CREATION_DATE  = 
ORIGINATOR     = 

OBJECT_NAME    = STARLINK-37194
OBJECT_ID      = 2026-063T
CENTER_NAME    = EARTH
REF_FRAME      = TEME
TIME_SYSTEM    = UTC
MEAN_ELEMENT_THEORY = SGP/SGP4

EPOCH          = 2026-04-05T04:00:01.999584
MEAN_MOTION    = 15.90968818
ECCENTRICITY   = .00015956
INCLINATION    = 97.2806
RA_OF_ASC_NODE = 236.1689
ARG_OF_PERICENTER = 56.0688
MEAN_ANOMALY   = 318.9899

EPHEMERIS_TYPE = 0
CLASSIFICATION_TYPE = U
NORAD_CAT_ID   = 68397
ELEMENT_SET_NO = 999
REV_AT_EPOCH   = 271
BSTAR          = -.7106157E-2
MEAN_MOTION_DOT = -.2195589E-1
MEAN_MOTION_DDOT = .12867855E-2

CCSDS_OMM_VERS = 2.0
CREATION_DATE  = 
ORIGINATOR     = 

OBJECT_NAME    = STARLINK-37220
OBJECT_ID      = 2026-063U
CENTER_NAME    = EARTH
REF_FRAME      = TEME
TIME_SYSTEM    = UTC
MEAN_ELEMENT_THEORY = SGP/SGP4

EPOCH          = 2026-04-05T04:00:01.999584
MEAN_MOTION    = 15.91191075
ECCENTRICITY   = .00016374
INCLINATION    = 97.2806
RA_OF_ASC_NODE = 236.1719
ARG_OF_PERICENTER = 52.5774
MEAN_ANOMALY   = 329.2924

EPHEMERIS_TYPE = 0
CLASSIFICATION_TYPE = U
NORAD_CAT_ID   = 68398
ELEMENT_SET_NO = 999
REV_AT_EPOCH   = 271
BSTAR          = -.70225535E-2
MEAN_MOTION_DOT = -.2194422E-1
MEAN_MOTION_DDOT = .1288476E-2

CCSDS_OMM_VERS = 2.0
CREATION_DATE  = 
ORIGINATOR     = 

OBJECT_NAME    = STARLINK-37187
OBJECT_ID      = 2026-063V
CENTER_NAME    = EARTH
REF_FRAME      = TEME
TIME_SYSTEM    = UTC
MEAN_ELEMENT_THEORY = SGP/SGP4

EPOCH          = 2026-04-05T04:00:01.999584
MEAN_MOTION    = 15.90902876
ECCENTRICITY   = .00024242
INCLINATION    = 97.2803
RA_OF_ASC_NODE = 236.1708
ARG_OF_PERICENTER = 49.2682
MEAN_ANOMALY   = 329.2760

EPHEMERIS_TYPE = 0
CLASSIFICATION_TYPE = U
NORAD_CAT_ID   = 68399
ELEMENT_SET_NO = 999
REV_AT_EPOCH   = 271
BSTAR          = -.6394514E-2
MEAN_MOTION_DOT = -.1971836E-1
MEAN_MOTION_DDOT = .10496678E-2

CCSDS_OMM_VERS = 2.0
CREATION_DATE  = 
ORIGINATOR     = 

OBJECT_NAME    = STARLINK-36235
OBJECT_ID      = 2026-063W
CENTER_NAME    = EARTH
REF_FRAME      = TEME
TIME_SYSTEM    = UTC
MEAN_ELEMENT_THEORY = SGP/SGP4

EPOCH          = 2026-04-05T04:00:01.999584
MEAN_MOTION    = 15.91288230
ECCENTRICITY   = .00015198
INCLINATION    = 97.2799
RA_OF_ASC_NODE = 236.1734
ARG_OF_PERICENTER = 61.6962
MEAN_ANOMALY   = 323.8525

EPHEMERIS_TYPE = 0
CLASSIFICATION_TYPE = U
NORAD_CAT_ID   = 68400
ELEMENT_SET_NO = 999
REV_AT_EPOCH   = 271
BSTAR          = -.70220293E-2
MEAN_MOTION_DOT = -.2204982E-1
MEAN_MOTION_DDOT = .13016264E-2

CCSDS_OMM_VERS = 2.0
CREATION_DATE  = 
ORIGINATOR     = 

OBJECT_NAME    = STARLINK-37175
OBJECT_ID      = 2026-063X
CENTER_NAME    = EARTH
REF_FRAME      = TEME
TIME_SYSTEM    = UTC
MEAN_ELEMENT_THEORY = SGP/SGP4

EPOCH          = 2026-04-05T04:00:01.999584
MEAN_MOTION    = 15.91394658
ECCENTRICITY   = .00016535
INCLINATION    = 97.2801
RA_OF_ASC_NODE = 236.1752
ARG_OF_PERICENTER = 57.2555
MEAN_ANOMALY   = 331.9122

EPHEMERIS_TYPE = 0
CLASSIFICATION_TYPE = U
NORAD_CAT_ID   = 68401
ELEMENT_SET_NO = 999
REV_AT_EPOCH   = 271
BSTAR          = -.70387358E-2
MEAN_MOTION_DOT = -.222211E-1
MEAN_MOTION_DDOT = .13224423E-2

CCSDS_OMM_VERS = 2.0
CREATION_DATE  = 
ORIGINATOR     = 

OBJECT_NAME    = STARLINK-36360
OBJECT_ID      = 2026-063Y
CENTER_NAME    = EARTH
REF_FRAME      = TEME
TIME_SYSTEM    = UTC
MEAN_ELEMENT_THEORY = SGP/SGP4

EPOCH          = 2026-04-05T04:00:01.999584
MEAN_MOTION    = 15.91495001
ECCENTRICITY   = .00016638
INCLINATION    = 97.2798
RA_OF_ASC_NODE = 236.1766
ARG_OF_PERICENTER = 60.2510
MEAN_ANOMALY   = 332.4637

EPHEMERIS_TYPE = 0
CLASSIFICATION_TYPE = U
NORAD_CAT_ID   = 68402
ELEMENT_SET_NO = 999
REV_AT_EPOCH   = 271
BSTAR          = -.6988492E-2
MEAN_MOTION_DOT = -.221762E-1
MEAN_MOTION_DDOT = .1318748E-2

CCSDS_OMM_VERS = 2.0
CREATION_DATE  = 
ORIGINATOR     = 

OBJECT_NAME    = STARLINK-37218
OBJECT_ID      = 2026-063Z
CENTER_NAME    = EARTH
REF_FRAME      = TEME
TIME_SYSTEM    = UTC
MEAN_ELEMENT_THEORY = SGP/SGP4

EPOCH          = 2026-04-05T04:00:01.999584
MEAN_MOTION    = 15.91739705
ECCENTRICITY   = .00016933
INCLINATION    = 97.2802
RA_OF_ASC_NODE = 236.1805
ARG_OF_PERICENTER = 53.8977
MEAN_ANOMALY   = 345.4311

EPHEMERIS_TYPE = 0
CLASSIFICATION_TYPE = U
NORAD_CAT_ID   = 68403
ELEMENT_SET_NO = 999
REV_AT_EPOCH   = 271
BSTAR          = -.69634753E-2
MEAN_MOTION_DOT = -.2237302E-1
MEAN_MOTION_DDOT = .13446571E-2

